[{"OBJECT_NAME":"HST","OBJECT_ID":"1990-037B","EPOCH":"2026-03-09T03:50:04.164288","MEAN_MOTION":15.29473555,"ECCENTRICITY":0.00018372,"INCLINATION":28.4717,"RA_OF_ASC_NODE":43.6133,"ARG_OF_PERICENTER":120.9992,"MEAN_ANOMALY":239.0785,"EPHEMERIS_TYPE":0,"CLASSIFICATION_TYPE":"U","NORAD_CAT_ID":20580,"ELEMENT_SET_NO":999,"REV_AT_EPOCH":77323,"BSTAR":0.0003002261,"MEAN_MOTION_DOT":9.063e-5,"MEAN_MOTION_DDOT":0},{"OBJECT_NAME":"STARLINK-34974","OBJECT_ID":"2025-176Z","EPOCH":"2026-03-09T12:01:51.623616","MEAN_MOTION":15.30183839,"ECCENTRICITY":0.00011865,"INCLINATION":53.1594,"RA_OF_ASC_NODE":153.4555,"ARG_OF_PERICENTER":69.6501,"MEAN_ANOMALY":290.4627,"EPHEMERIS_TYPE":0,"CLASSIFICATION_TYPE":"U","NORAD_CAT_ID":65221,"ELEMENT_SET_NO":999,"REV_AT_EPOCH":3309,"BSTAR":0.00079574997,"MEAN_MOTION_DOT":0.00023271,"MEAN_MOTION_DDOT":0}]
