HST                     
1 20580U 90037B   26068.15977042  .00009063  00000+0  30023-3 0  9999
2 20580  28.4717  43.6133 0001837 120.9992 239.0785 15.29473555773239
STARLINK-34974          
1 65221U 25176Z   26068.50129194  .00023271  00000+0  79575-3 0  9990
2 65221  53.1594 153.4555 0001186  69.6501 290.4627 15.30183839 33092
